SL-14 R/B               
1 16792U 86046B   26090.36080929  .00000670  00000+0  74206-4 0  9998
2 16792  82.4807  59.7004 0023764 152.9025 207.3437 14.85612220129624
SL-14 R/B               
1 16882U 86055B   26090.15497890  .00000607  00000+0  67109-4 0  9998
2 16882  82.5168 106.4927 0017327 260.4085 168.6196 14.85662249122550
AJISAI (EGS)            
1 16908U 86061A   26090.55427388 -.00000104  00000+0 -49517-4 0  9990
2 16908  50.0117  26.1134 0011346 343.3290  64.9101 12.44515620470727
SL-14 R/B               
1 17567U 87024B   26090.38631032  .00000664  00000+0  72814-4 0  9991
2 17567  82.5256  72.3651 0018045 183.9561 176.1516 14.86153691 91350
COSMOS 1833             
1 17589U 87027A   26090.52196652 -.00000291  00000+0 -12975-3 0  9997
2 17589  70.9169 280.1295 0023141 182.2060 177.8963 14.13046205 13406
SL-16 R/B               
1 17590U 87027B   26090.43229627  .00000156  00000+0  10105-3 0  9999
2 17590  71.0018 230.6739 0002878  88.7841 271.3613 14.17166363 18428
SL-14 R/B               
1 17912U 87038B   26090.25768855  .00000662  00000+0  73825-4 0  9991
2 17912  82.4977 276.4835 0020769  93.1980 267.1613 14.85389573 82434
COSMOS 1844             
1 17973U 87041A   26090.46317496  .00000414  00000+0  23946-3 0  9999
2 17973  70.9016 348.2517 0031232 345.9908  14.0344 14.14558874  6662
SL-14 R/B               
1 18153U 87055B   26090.50014744  .00000565  00000+0  62248-4 0  9996
2 18153  82.5002 328.4781 0019370 304.0862  55.8516 14.85651350 73179
COSMOS 1867             
1 18187U 87060A   26090.44763336 -.00000018  00000+0  30781-4 0  9991
2 18187  65.0097 245.7689 0014873 279.9326  80.0079 14.31506547 23056
SL-14 R/B               
1 18749U 88001B   26090.29495422  .00000631  00000+0  69978-4 0  9992
2 18749  82.5159 175.0463 0018544 162.4860 197.7000 14.85551831 45235
COSMOS 1933             
1 18958U 88020A   26090.34413929  .00006062  00000+0  29504-3 0  9997
2 18958  82.5123 229.4818 0005373 117.1612 243.0170 15.18191469 53511
