CCSDS_OMM_VERS = 2.0
CREATION_DATE  = 
ORIGINATOR     = 

OBJECT_NAME    = SL-14 R/B
OBJECT_ID      = 1986-046B
CENTER_NAME    = EARTH
REF_FRAME      = TEME
TIME_SYSTEM    = UTC
MEAN_ELEMENT_THEORY = SGP/SGP4

EPOCH          = 2026-03-31T08:39:33.922656
MEAN_MOTION    = 14.85612220
ECCENTRICITY   = .00237644
INCLINATION    = 82.4807
RA_OF_ASC_NODE = 59.7004
ARG_OF_PERICENTER = 152.9025
MEAN_ANOMALY   = 207.3437

EPHEMERIS_TYPE = 0
CLASSIFICATION_TYPE = U
NORAD_CAT_ID   = 16792
ELEMENT_SET_NO = 999
REV_AT_EPOCH   = 12962
BSTAR          = .74206395E-4
MEAN_MOTION_DOT = .67E-5
MEAN_MOTION_DDOT = 0

CCSDS_OMM_VERS = 2.0
CREATION_DATE  = 
ORIGINATOR     = 

OBJECT_NAME    = SL-14 R/B
OBJECT_ID      = 1986-055B
CENTER_NAME    = EARTH
REF_FRAME      = TEME
TIME_SYSTEM    = UTC
MEAN_ELEMENT_THEORY = SGP/SGP4

EPOCH          = 2026-03-31T03:43:10.176960
MEAN_MOTION    = 14.85662249
ECCENTRICITY   = .00173276
INCLINATION    = 82.5168
RA_OF_ASC_NODE = 106.4927
ARG_OF_PERICENTER = 260.4085
MEAN_ANOMALY   = 168.6196

EPHEMERIS_TYPE = 0
CLASSIFICATION_TYPE = U
NORAD_CAT_ID   = 16882
ELEMENT_SET_NO = 999
REV_AT_EPOCH   = 12255
BSTAR          = .67109468E-4
MEAN_MOTION_DOT = .607E-5
MEAN_MOTION_DDOT = 0

CCSDS_OMM_VERS = 2.0
CREATION_DATE  = 
ORIGINATOR     = 

OBJECT_NAME    = AJISAI (EGS)
OBJECT_ID      = 1986-061A
CENTER_NAME    = EARTH
REF_FRAME      = TEME
TIME_SYSTEM    = UTC
MEAN_ELEMENT_THEORY = SGP/SGP4

EPOCH          = 2026-03-31T13:18:09.263232
MEAN_MOTION    = 12.44515620
ECCENTRICITY   = .00113465
INCLINATION    = 50.0117
RA_OF_ASC_NODE = 26.1134
ARG_OF_PERICENTER = 343.3290
MEAN_ANOMALY   = 64.9101

EPHEMERIS_TYPE = 0
CLASSIFICATION_TYPE = U
NORAD_CAT_ID   = 16908
ELEMENT_SET_NO = 999
REV_AT_EPOCH   = 47072
BSTAR          = -.49517181E-4
MEAN_MOTION_DOT = -.104E-5
MEAN_MOTION_DDOT = 0

CCSDS_OMM_VERS = 2.0
CREATION_DATE  = 
ORIGINATOR     = 

OBJECT_NAME    = SL-14 R/B
OBJECT_ID      = 1987-024B
CENTER_NAME    = EARTH
REF_FRAME      = TEME
TIME_SYSTEM    = UTC
MEAN_ELEMENT_THEORY = SGP/SGP4

EPOCH          = 2026-03-31T09:16:17.211648
MEAN_MOTION    = 14.86153691
ECCENTRICITY   = .00180453
INCLINATION    = 82.5256
RA_OF_ASC_NODE = 72.3651
ARG_OF_PERICENTER = 183.9561
MEAN_ANOMALY   = 176.1516

EPHEMERIS_TYPE = 0
CLASSIFICATION_TYPE = U
NORAD_CAT_ID   = 17567
ELEMENT_SET_NO = 999
REV_AT_EPOCH   = 9135
BSTAR          = .72813801E-4
MEAN_MOTION_DOT = .664E-5
MEAN_MOTION_DDOT = 0

CCSDS_OMM_VERS = 2.0
CREATION_DATE  = 
ORIGINATOR     = 

OBJECT_NAME    = COSMOS 1833
OBJECT_ID      = 1987-027A
CENTER_NAME    = EARTH
REF_FRAME      = TEME
TIME_SYSTEM    = UTC
MEAN_ELEMENT_THEORY = SGP/SGP4

EPOCH          = 2026-03-31T12:31:37.907328
MEAN_MOTION    = 14.13046205
ECCENTRICITY   = .00231417
INCLINATION    = 70.9169
RA_OF_ASC_NODE = 280.1295
ARG_OF_PERICENTER = 182.2060
MEAN_ANOMALY   = 177.8963

EPHEMERIS_TYPE = 0
CLASSIFICATION_TYPE = U
NORAD_CAT_ID   = 17589
ELEMENT_SET_NO = 999
REV_AT_EPOCH   = 1340
BSTAR          = -.12975404E-3
MEAN_MOTION_DOT = -.291E-5
MEAN_MOTION_DDOT = 0

CCSDS_OMM_VERS = 2.0
CREATION_DATE  = 
ORIGINATOR     = 

OBJECT_NAME    = SL-16 R/B
OBJECT_ID      = 1987-027B
CENTER_NAME    = EARTH
REF_FRAME      = TEME
TIME_SYSTEM    = UTC
MEAN_ELEMENT_THEORY = SGP/SGP4

EPOCH          = 2026-03-31T10:22:30.397728
MEAN_MOTION    = 14.17166363
ECCENTRICITY   = .00028784
INCLINATION    = 71.0018
RA_OF_ASC_NODE = 230.6739
ARG_OF_PERICENTER = 88.7841
MEAN_ANOMALY   = 271.3613

EPHEMERIS_TYPE = 0
CLASSIFICATION_TYPE = U
NORAD_CAT_ID   = 17590
ELEMENT_SET_NO = 999
REV_AT_EPOCH   = 1842
BSTAR          = .10104881E-3
MEAN_MOTION_DOT = .156E-5
MEAN_MOTION_DDOT = 0

CCSDS_OMM_VERS = 2.0
CREATION_DATE  = 
ORIGINATOR     = 

OBJECT_NAME    = SL-14 R/B
OBJECT_ID      = 1987-038B
CENTER_NAME    = EARTH
REF_FRAME      = TEME
TIME_SYSTEM    = UTC
MEAN_ELEMENT_THEORY = SGP/SGP4

EPOCH          = 2026-03-31T06:11:04.290720
MEAN_MOTION    = 14.85389573
ECCENTRICITY   = .0020769
INCLINATION    = 82.4977
RA_OF_ASC_NODE = 276.4835
ARG_OF_PERICENTER = 93.1980
MEAN_ANOMALY   = 267.1613

EPHEMERIS_TYPE = 0
CLASSIFICATION_TYPE = U
NORAD_CAT_ID   = 17912
ELEMENT_SET_NO = 999
REV_AT_EPOCH   = 8243
BSTAR          = .73825E-4
MEAN_MOTION_DOT = .662E-5
MEAN_MOTION_DDOT = 0

CCSDS_OMM_VERS = 2.0
CREATION_DATE  = 
ORIGINATOR     = 

OBJECT_NAME    = COSMOS 1844
OBJECT_ID      = 1987-041A
CENTER_NAME    = EARTH
REF_FRAME      = TEME
TIME_SYSTEM    = UTC
MEAN_ELEMENT_THEORY = SGP/SGP4

EPOCH          = 2026-03-31T11:06:58.316544
MEAN_MOTION    = 14.14558874
ECCENTRICITY   = .0031232
INCLINATION    = 70.9016
RA_OF_ASC_NODE = 348.2517
ARG_OF_PERICENTER = 345.9908
MEAN_ANOMALY   = 14.0344

EPHEMERIS_TYPE = 0
CLASSIFICATION_TYPE = U
NORAD_CAT_ID   = 17973
ELEMENT_SET_NO = 999
REV_AT_EPOCH   = 666
BSTAR          = .23946E-3
MEAN_MOTION_DOT = .414E-5
MEAN_MOTION_DDOT = 0

CCSDS_OMM_VERS = 2.0
CREATION_DATE  = 
ORIGINATOR     = 

OBJECT_NAME    = SL-14 R/B
OBJECT_ID      = 1987-055B
CENTER_NAME    = EARTH
REF_FRAME      = TEME
TIME_SYSTEM    = UTC
MEAN_ELEMENT_THEORY = SGP/SGP4

EPOCH          = 2026-03-31T12:00:12.738816
MEAN_MOTION    = 14.85651350
ECCENTRICITY   = .00193701
INCLINATION    = 82.5002
RA_OF_ASC_NODE = 328.4781
ARG_OF_PERICENTER = 304.0862
MEAN_ANOMALY   = 55.8516

EPHEMERIS_TYPE = 0
CLASSIFICATION_TYPE = U
NORAD_CAT_ID   = 18153
ELEMENT_SET_NO = 999
REV_AT_EPOCH   = 7317
BSTAR          = .62247863E-4
MEAN_MOTION_DOT = .565E-5
MEAN_MOTION_DDOT = 0

CCSDS_OMM_VERS = 2.0
CREATION_DATE  = 
ORIGINATOR     = 

OBJECT_NAME    = COSMOS 1867
OBJECT_ID      = 1987-060A
CENTER_NAME    = EARTH
REF_FRAME      = TEME
TIME_SYSTEM    = UTC
MEAN_ELEMENT_THEORY = SGP/SGP4

EPOCH          = 2026-03-31T10:44:35.522304
MEAN_MOTION    = 14.31506547
ECCENTRICITY   = .0014873
INCLINATION    = 65.0097
RA_OF_ASC_NODE = 245.7689
ARG_OF_PERICENTER = 279.9326
MEAN_ANOMALY   = 80.0079

EPHEMERIS_TYPE = 0
CLASSIFICATION_TYPE = U
NORAD_CAT_ID   = 18187
ELEMENT_SET_NO = 999
REV_AT_EPOCH   = 2305
BSTAR          = .30780826E-4
MEAN_MOTION_DOT = -.18E-6
MEAN_MOTION_DDOT = 0

CCSDS_OMM_VERS = 2.0
CREATION_DATE  = 
ORIGINATOR     = 

OBJECT_NAME    = SL-14 R/B
OBJECT_ID      = 1988-001B
CENTER_NAME    = EARTH
REF_FRAME      = TEME
TIME_SYSTEM    = UTC
MEAN_ELEMENT_THEORY = SGP/SGP4

EPOCH          = 2026-03-31T07:04:44.044608
MEAN_MOTION    = 14.85551831
ECCENTRICITY   = .00185449
INCLINATION    = 82.5159
RA_OF_ASC_NODE = 175.0463
ARG_OF_PERICENTER = 162.4860
MEAN_ANOMALY   = 197.7000

EPHEMERIS_TYPE = 0
CLASSIFICATION_TYPE = U
NORAD_CAT_ID   = 18749
ELEMENT_SET_NO = 999
REV_AT_EPOCH   = 4523
BSTAR          = .69977647E-4
MEAN_MOTION_DOT = .631E-5
MEAN_MOTION_DDOT = 0

CCSDS_OMM_VERS = 2.0
CREATION_DATE  = 
ORIGINATOR     = 

OBJECT_NAME    = COSMOS 1933
OBJECT_ID      = 1988-020A
CENTER_NAME    = EARTH
REF_FRAME      = TEME
TIME_SYSTEM    = UTC
MEAN_ELEMENT_THEORY = SGP/SGP4

EPOCH          = 2026-03-31T08:15:33.634656
MEAN_MOTION    = 15.18191469
ECCENTRICITY   = .0005373
INCLINATION    = 82.5123
RA_OF_ASC_NODE = 229.4818
ARG_OF_PERICENTER = 117.1612
MEAN_ANOMALY   = 243.0170

EPHEMERIS_TYPE = 0
CLASSIFICATION_TYPE = U
NORAD_CAT_ID   = 18958
ELEMENT_SET_NO = 999
REV_AT_EPOCH   = 5351
BSTAR          = .29504E-3
MEAN_MOTION_DOT = .6062E-4
MEAN_MOTION_DDOT = 0

